start=new Date('2023-05-13T00:00:00.000Z').valueOf();
sats=[{"OBJECT_ID":"2022-051AE","ELEMENT_SET_NO":"999","INCLINATION":"53.2166","PERIAPSIS":"538.992","LAUNCH_DATE":"2022-05-13","ARG_OF_PERICENTER":"107.4419","REV_AT_EPOCH":"5557","BSTAR":"0.00002103800000","RA_OF_ASC_NODE":"89.0844","SEMIMAJOR_AXIS":"6917.888","REF_FRAME":"TEME","MEAN_MOTION_DOT":"0.00000047","APOAPSIS":"540.513","OBJECT_NAME":"STARLINK-3955","OBJECT_TYPE":"PAYLOAD","TIME_SYSTEM":"UTC","MEAN_ANOMALY":"252.6694","SITE":"AFWTR","CENTER_NAME":"EARTH","PERIOD":"95.438","MEAN_MOTION":"15.08837585","RCS_SIZE":"LARGE","NORAD_CAT_ID":"52561","CLASSIFICATION_TYPE":"U","TLE_LINE2":"2 52561  53.2166  89.0844 0001099 107.4419 252.6694 15.08837585 55578","MEAN_ELEMENT_THEORY":"SGP4","COUNTRY_CODE":"US","EPHEMERIS_TYPE":"0","TLE_LINE1":"1 52561U 22051AE  23132.21275486  .00000047  00000-0  21038-4 0  9994","GP_ID":"231647487","ECCENTRICITY":"0.00010990","FILE":"3905828","EPOCH":"2023-05-12T05:06:22.019904","DECAY_DATE":null,"MEAN_MOTION_DDOT":"0.0000000000000"},{"PERIOD":"95.437","CENTER_NAME":"EARTH","SITE":"AFWTR","MEAN_ANOMALY":"236.5959","TIME_SYSTEM":"UTC","MEAN_MOTION":"15.08845164","OBJECT_NAME":"STARLINK-3957","APOAPSIS":"540.365","MEAN_MOTION_DOT":"0.00002823","OBJECT_TYPE":"PAYLOAD","RA_OF_ASC_NODE":"70.7691","BSTAR":"0.00019535000000","REF_FRAME":"TEME","SEMIMAJOR_AXIS":"6917.865","ELEMENT_SET_NO":"999","INCLINATION":"53.2154","OBJECT_ID":"2022-051AF","REV_AT_EPOCH":"5589","ARG_OF_PERICENTER":"123.5121","LAUNCH_DATE":"2022-05-13","PERIAPSIS":"539.094","DECAY_DATE":null,"EPOCH":"2023-05-12T22:50:49.823520","MEAN_MOTION_DDOT":"0.0000000000000","TLE_LINE1":"1 52562U 22051AF  23132.95196555  .00002823  00000-0  19535-3 0  9997","FILE":"3906360","ECCENTRICITY":"0.00009190","GP_ID":"231685511","EPHEMERIS_TYPE":"0","NORAD_CAT_ID":"52562","RCS_SIZE":"LARGE","MEAN_ELEMENT_THEORY":"SGP4","COUNTRY_CODE":"US","TLE_LINE2":"2 52562  53.2154  70.7691 0000919 123.5121 236.5959 15.08845164 55894","CLASSIFICATION_TYPE":"U"},{"CLASSIFICATION_TYPE":"U","MEAN_ELEMENT_THEORY":"SGP4","COUNTRY_CODE":"US","TLE_LINE2":"2 52563  53.2170  89.3676 0001149  88.3529 271.7594 15.08837701 55498","NORAD_CAT_ID":"52563","RCS_SIZE":"LARGE","EPHEMERIS_TYPE":"0","ECCENTRICITY":"0.00011490","GP_ID":"231672357","FILE":"3905921","TLE_LINE1":"1 52563U 22051AG  23132.15019390 -.00000355  00000-0 -42177-5 0  9991","EPOCH":"2023-05-12T03:36:16.752960","DECAY_DATE":null,"MEAN_MOTION_DDOT":"0.0000000000000","LAUNCH_DATE":"2022-05-13","PERIAPSIS":"538.958","ARG_OF_PERICENTER":"88.3529","REV_AT_EPOCH":"5549","OBJECT_ID":"2022-051AG","INCLINATION":"53.2170","ELEMENT_SET_NO":"999","REF_FRAME":"TEME","SEMIMAJOR_AXIS":"6917.887","BSTAR":"-0.00000421770000","RA_OF_ASC_NODE":"89.3676","OBJECT_TYPE":"PAYLOAD","APOAPSIS":"540.547","MEAN_MOTION_DOT":"-0.00000355","OBJECT_NAME":"STARLINK-3942","MEAN_MOTION":"15.08837701","MEAN_ANOMALY":"271.7594","TIME_SYSTEM":"UTC","PERIOD":"95.438","SITE":"AFWTR","CENTER_NAME":"EARTH"},{"OBJECT_TYPE":"PAYLOAD","OBJECT_NAME":"STARLINK-3959","MEAN_MOTION_DOT":"0.00000931","APOAPSIS":"540.536","MEAN_MOTION":"15.08835069","SITE":"AFWTR","CENTER_NAME":"EARTH","PERIOD":"95.438","TIME_SYSTEM":"UTC","MEAN_ANOMALY":"272.8818","REV_AT_EPOCH":"5549","ARG_OF_PERICENTER":"87.2302","PERIAPSIS":"538.985","LAUNCH_DATE":"2022-05-13","ELEMENT_SET_NO":"999","INCLINATION":"53.2152","OBJECT_ID":"2022-051AH","REF_FRAME":"TEME","SEMIMAJOR_AXIS":"6917.895","RA_OF_ASC_NODE":"89.4045","BSTAR":"0.00007657800000","FILE":"3905921","GP_ID":"231672599","ECCENTRICITY":"0.00011210","TLE_LINE1":"1 52564U 22051AH  23132.14379392  .00000931  00000-0  76578-4 0  9991","DECAY_DATE":null,"MEAN_MOTION_DDOT":"0.0000000000000","EPOCH":"2023-05-12T03:27:03.794688","TLE_LINE2":"2 52564  53.2152  89.4045 0001121  87.2302 272.8818 15.08835069 55493","MEAN_ELEMENT_THEORY":"SGP4","COUNTRY_CODE":"US","CLASSIFICATION_TYPE":"U","RCS_SIZE":"LARGE","NORAD_CAT_ID":"52564","EPHEMERIS_TYPE":"0"},{"RCS_SIZE":"LARGE","NORAD_CAT_ID":"52565","CLASSIFICATION_TYPE":"U","TLE_LINE2":"2 52565  53.2177  74.3202 0001205  90.6985 269.4145 15.08837665 55777","MEAN_ELEMENT_THEORY":"SGP4","COUNTRY_CODE":"US","EPHEMERIS_TYPE":"0","TLE_LINE1":"1 52565U 22051AJ  23132.16077563 -.00000168  00000-0  75014-5 0  9997","GP_ID":"231685746","ECCENTRICITY":"0.00012050","FILE":"3906360","DECAY_DATE":null,"EPOCH":"2023-05-12T03:51:31.014432","MEAN_MOTION_DDOT":"0.0000000000000","OBJECT_ID":"2022-051AJ","ELEMENT_SET_NO":"999","INCLINATION":"53.2177","PERIAPSIS":"538.919","LAUNCH_DATE":"2022-05-13","ARG_OF_PERICENTER":"90.6985","REV_AT_EPOCH":"5577","BSTAR":"0.00000750140000","RA_OF_ASC_NODE":"74.3202","SEMIMAJOR_AXIS":"6917.888","REF_FRAME":"TEME","MEAN_MOTION_DOT":"-0.00000168","APOAPSIS":"540.586","OBJECT_NAME":"STARLINK-3911","OBJECT_TYPE":"PAYLOAD","MEAN_ANOMALY":"269.4145","TIME_SYSTEM":"UTC","CENTER_NAME":"EARTH","SITE":"AFWTR","PERIOD":"95.438","MEAN_MOTION":"15.08837665"},{"OBJECT_TYPE":"PAYLOAD","MEAN_MOTION_DOT":"-0.00000822","APOAPSIS":"540.444","OBJECT_NAME":"STARLINK-3938","MEAN_MOTION":"15.08833571","TIME_SYSTEM":"UTC","MEAN_ANOMALY":"260.8166","CENTER_NAME":"EARTH","SITE":"AFWTR","PERIOD":"95.438","PERIAPSIS":"539.086","LAUNCH_DATE":"2022-05-13","ARG_OF_PERICENTER":"99.2937","REV_AT_EPOCH":"5550","OBJECT_ID":"2022-051AK","INCLINATION":"53.2168","ELEMENT_SET_NO":"999","REF_FRAME":"TEME","SEMIMAJOR_AXIS":"6917.900","RA_OF_ASC_NODE":"89.2032","BSTAR":"-0.00003356400000","GP_ID":"231671607","ECCENTRICITY":"0.00009820","FILE":"3905921","TLE_LINE1":"1 52566U 22051AK  23132.18699757 -.00000822  00000-0 -33564-4 0  9996","DECAY_DATE":null,"MEAN_MOTION_DDOT":"0.0000000000000","EPOCH":"2023-05-12T04:29:16.590048","CLASSIFICATION_TYPE":"U","TLE_LINE2":"2 52566  53.2168  89.2032 0000982  99.2937 260.8166 15.08833571 55508","MEAN_ELEMENT_THEORY":"SGP4","COUNTRY_CODE":"US","RCS_SIZE":"LARGE","NORAD_CAT_ID":"52566","EPHEMERIS_TYPE":"0"},{"CLASSIFICATION_TYPE":"U","MEAN_ELEMENT_THEORY":"SGP4","COUNTRY_CODE":"US","TLE_LINE2":"2 52567  53.2163  70.4915 0000938 115.0975 245.0115 15.08840138 55906","NORAD_CAT_ID":"52567","RCS_SIZE":"LARGE","EPHEMERIS_TYPE":"0","ECCENTRICITY":"0.00009380","GP_ID":"231685521","FILE":"3906360","TLE_LINE1":"1 52567U 22051AL  23133.01453296  .00001602  00000-0  11871-3 0  9997","EPOCH":"2023-05-13T00:20:55.647744","DECAY_DATE":null,"MEAN_MOTION_DDOT":"0.0000000000000","LAUNCH_DATE":"2022-05-13","PERIAPSIS":"539.096","ARG_OF_PERICENTER":"115.0975","REV_AT_EPOCH":"5590","OBJECT_ID":"2022-051AL","ELEMENT_SET_NO":"999","INCLINATION":"53.2163","SEMIMAJOR_AXIS":"6917.880","REF_FRAME":"TEME","BSTAR":"0.00011871000000","RA_OF_ASC_NODE":"70.4915","OBJECT_TYPE":"PAYLOAD","APOAPSIS":"540.394","MEAN_MOTION_DOT":"0.00001602","OBJECT_NAME":"STARLINK-3929","MEAN_MOTION":"15.08840138","MEAN_ANOMALY":"245.0115","TIME_SYSTEM":"UTC","PERIOD":"95.438","CENTER_NAME":"EARTH","SITE":"AFWTR"},{"MEAN_MOTION":"15.08826947","SITE":"AFWTR","CENTER_NAME":"EARTH","PERIOD":"95.438","TIME_SYSTEM":"UTC","MEAN_ANOMALY":"269.4808","OBJECT_TYPE":"PAYLOAD","OBJECT_NAME":"STARLINK-3930","MEAN_MOTION_DOT":"-0.00000119","APOAPSIS":"540.448","SEMIMAJOR_AXIS":"6917.920","REF_FRAME":"TEME","BSTAR":"0.00001057900000","RA_OF_ASC_NODE":"74.4073","REV_AT_EPOCH":"5570","ARG_OF_PERICENTER":"90.6293","PERIAPSIS":"539.123","LAUNCH_DATE":"2022-05-13","ELEMENT_SET_NO":"999","INCLINATION":"53.2180","OBJECT_ID":"2022-051AM","DECAY_DATE":null,"EPOCH":"2023-05-12T03:25:01.833312","MEAN_MOTION_DDOT":"0.0000000000000","FILE":"3905921","GP_ID":"231673099","ECCENTRICITY":"0.00009580","TLE_LINE1":"1 52568U 22051AM  23132.14238233 -.00000119  00000-0  10579-4 0  9991","EPHEMERIS_TYPE":"0","TLE_LINE2":"2 52568  53.2180  74.4073 0000958  90.6293 269.4808 15.08826947 55707","MEAN_ELEMENT_THEORY":"SGP4","COUNTRY_CODE":"US","CLASSIFICATION_TYPE":"U","RCS_SIZE":"LARGE","NORAD_CAT_ID":"52568"},{"OBJECT_TYPE":"PAYLOAD","APOAPSIS":"540.617","MEAN_MOTION_DOT":"-0.00000365","OBJECT_NAME":"STARLINK-3927","MEAN_MOTION":"15.08834978","TIME_SYSTEM":"UTC","MEAN_ANOMALY":"246.6188","PERIOD":"95.438","SITE":"AFWTR","CENTER_NAME":"EARTH","LAUNCH_DATE":"2022-05-13","PERIAPSIS":"538.904","REV_AT_EPOCH":"5570","ARG_OF_PERICENTER":"113.4934","OBJECT_ID":"2022-051AN","ELEMENT_SET_NO":"999","INCLINATION":"53.2177","SEMIMAJOR_AXIS":"6917.896","REF_FRAME":"TEME","BSTAR":"-0.00000486640000","RA_OF_ASC_NODE":"74.3718","ECCENTRICITY":"0.00012380","GP_ID":"231671357","FILE":"3905921","TLE_LINE1":"1 52569U 22051AN  23132.14973645 -.00000365  00000-0 -48664-5 0  9996","MEAN_MOTION_DDOT":"0.0000000000000","DECAY_DATE":null,"EPOCH":"2023-05-12T03:35:37.229280","CLASSIFICATION_TYPE":"U","MEAN_ELEMENT_THEORY":"SGP4","COUNTRY_CODE":"US","TLE_LINE2":"2 52569  53.2177  74.3718 0001238 113.4934 246.6188 15.08834978 55708","NORAD_CAT_ID":"52569","RCS_SIZE":"LARGE","EPHEMERIS_TYPE":"0"},{"RA_OF_ASC_NODE":"74.4223","BSTAR":"-0.00000386620000","SEMIMAJOR_AXIS":"6917.913","REF_FRAME":"TEME","ELEMENT_SET_NO":"999","INCLINATION":"53.2177","OBJECT_ID":"2022-051AP","ARG_OF_PERICENTER":"103.1848","REV_AT_EPOCH":"5570","PERIAPSIS":"539.152","LAUNCH_DATE":"2022-05-13","CENTER_NAME":"EARTH","SITE":"AFWTR","PERIOD":"95.438","MEAN_ANOMALY":"256.9245","TIME_SYSTEM":"UTC","MEAN_MOTION":"15.08829335","OBJECT_NAME":"STARLINK-3924","MEAN_MOTION_DOT":"-0.00000349","APOAPSIS":"540.404","OBJECT_TYPE":"PAYLOAD","EPHEMERIS_TYPE":"0","RCS_SIZE":"LARGE","NORAD_CAT_ID":"52570","TLE_LINE2":"2 52570  53.2177  74.4223 0000905 103.1848 256.9245 15.08829335 55701","COUNTRY_CODE":"US","MEAN_ELEMENT_THEORY":"SGP4","CLASSIFICATION_TYPE":"U","DECAY_DATE":null,"MEAN_MOTION_DDOT":"0.0000000000000","EPOCH":"2023-05-12T03:19:43.479552","TLE_LINE1":"1 52570U 22051AP  23132.13869768 -.00000349  00000-0 -38662-5 0  9996","FILE":"3905921","GP_ID":"231672106","ECCENTRICITY":"0.00009050"}];
